NORAD_CAT_ID,OBJECT_NAME,OBJECT_TYPE,EPOCH,MEAN_MOTION,ECCENTRICITY,INCLINATION,RA_OF_ASC_NODE,ARG_OF_PERICENTER,MEAN_ANOMALY,BSTAR,MEAN_MOTION_DOT,MEAN_MOTION_DDOT,TLE_LINE0,TLE_LINE1,TLE_LINE2,SEMIMAJOR_AXIS,PERIOD,APOGEE,PERIGEE,DECAYED
51778.0,STARLINK-3615,PAYLOAD,2022-09-13 08:00:01,15.0884625,0.0001669,53.2143,285.4347,49.2827,247.4283,-0.0024625999999999,-0.00039274,0.0,0 STARLINK-3615,1 51778U 22017L   22256.33334491 -.00039274  00000-0 -24626-2 0  9996,2 51778  53.2143 285.4347 0001669  49.2827 247.4283 15.08846250 31974,6917.861,95.437,540.881,538.572,0.0
51778.0,STARLINK-3615,PAYLOAD,2022-09-13 14:00:01,15.08814536,0.0001694,53.2145,284.3126,44.938,170.4667,0.0022474,0.00035636,0.0,0 STARLINK-3615,1 51778U 22017L   22256.58334491  .00035636  00000-0  22474-2 0  9998,2 51778  53.2145 284.3126 0001694  44.9380 170.4667 15.08814536  1300,6917.958000000001,95.439,540.995,538.651,0.0
51778.0,STARLINK-3615,PAYLOAD,2022-09-13 22:00:00,15.08810542,0.0001526,53.2148,282.8141,50.5875,176.3997,0.002812,0.00044713,0.0,0 STARLINK-3615,1 51778U 22017L   22256.91667824  .00044713  00000-0  28120-2 0  9994,2 51778  53.2148 282.8141 0001526  50.5875 176.3997 15.08810542 32060,6917.97,95.439,540.891,538.78,0.0
51778.0,STARLINK-3615,PAYLOAD,2022-09-14 14:00:01,15.08850509,0.0001806,53.2148,279.8229,46.4649,203.7018,-0.0004623,-7.64e-05,0.0,0 STARLINK-3615,1 51778U 22017L   22257.58334491 -.00007640  00000-0 -46230-3 0  9992,2 51778  53.2148 279.8229 0001806  46.4649 203.7018 15.08850509 32164,6917.848000000001,95.437,540.9630000000002,538.464,0.0
51778.0,STARLINK-3615,PAYLOAD,2022-09-14 22:00:00,15.08808988,0.0001739,53.2152,278.3246,53.6583,208.1254,0.0024115,0.00038267,0.0,0 STARLINK-3615,1 51778U 22017L   22257.91667824  .00038267  00000-0  24115-2 0  9992,2 51778  53.2152 278.3246 0001739  53.6583 208.1254 15.08808988  1301,6917.975,95.44,541.043,538.637,0.0
51778.0,STARLINK-3615,PAYLOAD,2022-09-15 14:00:01,15.08840411,0.0001925,53.2153,275.3334,48.94,236.0086,0.00088519,0.00013828,0.0,0 STARLINK-3615,1 51778U 22017L   22258.58334491  .00013828  00000-0  88519-3 0  9992,2 51778  53.2153 275.3334 0001925  48.9400 236.0086 15.08840411  1309,6917.879,95.438,541.076,538.4119999999998,0.0
51778.0,STARLINK-3615,PAYLOAD,2022-09-15 16:00:00,15.08860539,0.0001893,53.2154,274.9587,50.0027,327.8406,-0.0017012,-0.00027276,0.0,0 STARLINK-3615,1 51778U 22017L   22258.66667824 -.00027276  00000-0 -17012-2 0  9993,2 51778  53.2154 274.9587 0001893  50.0027 327.8406 15.08860539  1306,6917.818,95.436,540.992,538.373,0.0
51778.0,STARLINK-3615,PAYLOAD,2022-09-16 07:49:10,15.08837592,0.0001676999999999,53.2165,271.9991,55.4069,304.7081,2.1144e-05,4.8e-07,0.0,0 STARLINK-3615,1 51778U 22017L   22259.32581442  .00000048  00000-0  21144-4 0  9997,2 51778  53.2165 271.9991 0001677  55.4069 304.7081 15.08837592 30778,6917.888000000001,95.438,540.913,538.5930000000002,0.0
51778.0,STARLINK-3615,PAYLOAD,2022-09-16 17:21:29,15.08833614,0.0001409999999999,53.2156,270.2162,60.2381,299.8751,-3.7467e-05,-8.84e-06,0.0,0 STARLINK-3615,1 51778U 22017L   22259.72325919 -.00000884  00000-0 -37467-4 0  9991,2 51778  53.2156 270.2162 0001410  60.2381 299.8751 15.08833614 32485,6917.9,95.438,540.74,538.789,0.0
51778.0,STARLINK-3615,PAYLOAD,2022-09-17 07:39:57,15.08831295,0.0001739,53.216,267.5388,53.3356,306.7796,-7.9447e-06,-4.14e-06,0.0,0 STARLINK-3615,1 51778U 22017L   22260.31942117 -.00000414  00000-0 -79447-5 0  9997,2 51778  53.2160 267.5388 0001739  53.3356 306.7796 15.08831295 30925,6917.906999999997,95.438,540.975,538.569,0.0
51778.0,STARLINK-3615,PAYLOAD,2022-09-17 17:12:17,15.08823843,0.0001858,53.2162,265.7555,49.097,311.0183,-7.0545e-05,-1.41e-05,0.0,0 STARLINK-3615,1 51778U 22017L   22260.71687199 -.00001410  00000-0 -70545-4 0  9993,2 51778  53.2162 265.7555 0001858  49.0970 311.0183 15.08823843 32638,6917.93,95.439,541.08,538.509,0.0
51778.0,STARLINK-3615,PAYLOAD,2022-09-18 10:41:32,15.088267300000002,0.0001786999999999,53.2159,262.4843,51.0147,309.1004,4.6527e-05,4.52e-06,0.0,0 STARLINK-3615,1 51778U 22017L   22261.44551118  .00000452  00000-0  46527-4 0  9991,2 51778  53.2159 262.4843 0001787  51.0147 309.1004 15.08826730 32748,6917.920999999999,95.438,541.0219999999998,538.55,0.0
51778.0,STARLINK-3615,PAYLOAD,2022-09-18 17:03:04,15.08829916,0.000178,53.2159,261.2947,51.5148,308.6004,5.2027e-05,5.400000000000002e-06,0.0,0 STARLINK-3615,1 51778U 22017L   22261.71047098  .00000540  00000-0  52027-4 0  9998,2 51778  53.2159 261.2947 0001780  51.5148 308.6004 15.08829916 31134,6917.911,95.438,541.008,538.545,0.0
51778.0,STARLINK-3615,PAYLOAD,2022-09-19 04:10:46,15.08836753,0.000177,53.2162,259.2127,50.4142,309.7007,5.7485e-05,6.27e-06,0.0,0 STARLINK-3615,1 51778U 22017L   22262.17414866  .00000627  00000-0  57485-4 0  9999,2 51778  53.2162 259.2127 0001770  50.4142 309.7007 15.08836753 32858,6917.89,95.438,540.98,538.531,0.0
51778.0,STARLINK-3615,PAYLOAD,2022-09-19 12:07:41,15.08840199,0.0001814,53.216,257.7261,51.2797,308.8357,9.9103e-05,1.289e-05,0.0,0 STARLINK-3615,1 51778U 22017L   22262.50534592  .00001289  00000-0  99103-4 0  9993,2 51778  53.2160 257.7261 0001814  51.2797 308.8357 15.08840199 31252,6917.88,95.438,541.0,538.49,0.0
51778.0,STARLINK-3615,PAYLOAD,2022-09-19 16:53:51,15.08837855,0.000179,53.2162,256.8337,52.5587,307.5568,0.00017519,2.501e-05,0.0,0 STARLINK-3615,1 51778U 22017L   22262.70406519  .00002501  00000-0  17519-3 0  9990,2 51778  53.2162 256.8337 0001790  52.5587 307.5568 15.08837855 31280,6917.887,95.438,540.99,538.514,0.0
51778.0,STARLINK-3615,PAYLOAD,2022-09-20 05:36:56,15.08842165,0.0001805,53.2163,254.4547,53.6234,306.4925,0.00014787,2.066e-05,0.0,0 STARLINK-3615,1 51778U 22017L   22263.23398354  .00002066  00000-0  14787-3 0  9996,2 51778  53.2163 254.4547 0001805  53.6234 306.4925 15.08842165 33014,6917.874,95.437,540.987,538.49,0.0
51778.0,STARLINK-3615,PAYLOAD,2022-09-20 11:58:28,15.08846842,0.0001802,53.2161,253.2652,53.3047,306.811,0.0001320999999999,1.815e-05,0.0,0 STARLINK-3615,1 51778U 22017L   22263.49893983  .00001815  00000-0  13210-3 0  9993,2 51778  53.2161 253.2652 0001802  53.3047 306.8110 15.08846842 31409,6917.859,95.437,540.971,538.4780000000002,0.0
51778.0,STARLINK-3615,PAYLOAD,2022-09-21 08:38:29,15.088440900000002,0.0001725,53.2164,249.3997,53.033,307.082,-1.2585e-05,-4.88e-06,0.0,0 STARLINK-3615,1 51778U 22017L   22264.36006385 -.00000488  00000-0 -12585-4 0  9994,2 51778  53.2164 249.3997 0001725  53.0330 307.0820 15.08844090 31534,6917.868,95.437,540.9259999999998,538.54,0.0
51778.0,STARLINK-3615,PAYLOAD,2022-09-22 08:29:16,15.0883922,0.0001798,53.2162,244.9396,51.4559,308.6594,2.1397e-05,5.2e-07,0.0,0 STARLINK-3615,1 51778U 22017L   22265.35366309  .00000052  00000-0  21397-4 0  9995,2 51778  53.2162 244.9396 0001798  51.4559 308.6594 15.08839220 31681,6917.8830000000025,95.438,540.992,538.504,0.0
51778.0,STARLINK-3615,PAYLOAD,2022-09-23 05:09:17,15.08834945,0.000175,53.2165,241.0734,50.6863,309.4284,-2.6455e-05,-7.09e-06,0.0,0 STARLINK-3615,1 51778U 22017L   22266.21478752 -.00000709  00000-0 -26455-4 0  9998,2 51778  53.2165 241.0734 0001750  50.6863 309.4284 15.08834945 33467,6917.896,95.438,540.971,538.55,0.0
51778.0,STARLINK-3615,PAYLOAD,2022-09-23 09:55:26,15.08836199,0.0001751,53.2164,240.1811,50.351000000000006,309.7636,-1.6518e-05,-5.51e-06,0.0,0 STARLINK-3615,1 51778U 22017L   22266.41350674 -.00000551  00000-0 -16518-4 0  9996,2 51778  53.2164 240.1811 0001751  50.3510 309.7636 15.08836199 31846,6917.892,95.438,540.9680000000002,538.5459999999998,0.0
51778.0,STARLINK-3615,PAYLOAD,2022-09-24 09:46:14,15.08835815,0.0001675999999999,53.2157,235.7219,48.1585,311.955,-6.9263e-06,-3.98e-06,0.0,0 STARLINK-3615,1 51778U 22017L   22267.40710796 -.00000398  00000-0 -69263-5 0  9996,2 51778  53.2157 235.7219 0001676  48.1585 311.9550 15.08835815 31993,6917.893,95.438,540.918,538.599,0.0
51778.0,STARLINK-3615,PAYLOAD,2022-09-25 04:50:51,15.08841923,0.0001751999999999,53.216,232.1537,44.0336,316.0796,7.4927e-05,9.05e-06,0.0,0 STARLINK-3615,1 51778U 22017L   22268.20198157  .00000905  00000-0  74927-4 0  9990,2 51778  53.2160 232.1537 0001752  44.0336 316.0796 15.08841923 33767,6917.875,95.437,540.952,538.5269999999998,0.0
51778.0,STARLINK-3615,PAYLOAD,2022-09-25 06:26:14,15.08835327,0.0001821,53.2166,231.8557,51.3647,308.7507,2.4195e-05,9.7e-07,0.0,0 STARLINK-3615,1 51778U 22017L   22268.26822706  .00000097  00000-0  24195-4 0  9994,2 51778  53.2166 231.8557 0001821  51.3647 308.7507 15.08835327 33774,6917.895,95.438,541.019,538.5,0.0
51778.0,STARLINK-3615,PAYLOAD,2022-09-26 06:17:02,15.0883005,0.0001672,53.2167,227.3947,49.9129,310.201,4.8168e-06,-2.11e-06,0.0,0 STARLINK-3615,1 51778U 22017L   22269.26183113 -.00000211  00000-0  48168-5 0  9993,2 51778  53.2167 227.3947 0001672  49.9129 310.2010 15.08830050 32279,6917.911,95.438,540.932,538.619,0.0
51778.0,STARLINK-3615,PAYLOAD,2022-09-27 02:57:02,15.08846863,0.0001698,53.2169,223.5298,56.32,303.7954,7.426e-06,-1.7e-06,0.0,0 STARLINK-3615,1 51778U 22017L   22270.12294204 -.00000170  00000-0  74260-5 0  9990,2 51778  53.2169 223.5298 0001698  56.3200 303.7954 15.08846863 34059,6917.859,95.437,540.899,538.55,0.0
51778.0,STARLINK-3615,PAYLOAD,2022-09-27 07:43:12,15.08839092,0.0001723,53.217,222.6372,56.5624,303.5533,-6.081e-05,-1.256e-05,0.0,0 STARLINK-3615,1 51778U 22017L   22270.32166914 -.00001256  00000-0 -60810-4 0  9990,2 51778  53.2170 222.6372 0001723  56.5624 303.5533 15.08839092 32432,6917.8830000000025,95.438,540.94,538.556,0.0
51778.0,STARLINK-3615,PAYLOAD,2022-09-27 14:04:44,15.08835559,0.0001684,53.2168,221.4476,56.957,303.1583,4.4086e-05,4.14e-06,0.0,0 STARLINK-3615,1 51778U 22017L   22270.58662829  .00000414  00000-0  44086-4 0  9994,2 51778  53.2168 221.4476 0001684  56.9570 303.1583 15.08835559 32470,6917.894,95.438,540.924,538.594,0.0
